STARLINK-32034          
1 60297U 24132V   26079.10369172  .00011645  00000+0  40555-3 0  9997
2 60297  53.1619   4.1401 0001541 115.2846 244.8314 15.30128320 93158
STARLINK-32124          
1 60298U 24132W   26079.50823778  .00002030  00000+0  80690-4 0  9992
2 60298  53.1623   2.4020 0001179  97.2378 262.8757 15.30180046 93219
STARLINK-32151          
1 60299U 24132X   26079.11877153  .00001210  00000+0  52997-4 0  9994
2 60299  53.1615 335.5421 0001171  80.0441 280.0692 15.30192602 93557
STARLINK-32134          
1 60300U 24132Y   26079.48606784  .00000445  00000+0  27145-4 0  9993
2 60300  53.1619   2.2611 0001011  92.1524 267.9593 15.30199911 93219
STARLINK-11147 [DTC]    
1 60301U 24133A   26079.46569052  .00000832  00000+0  11729-4 0  9990
2 60301  53.1585  93.3193 0001231  83.3542 276.7616 15.69706300 95421
STARLINK-11128 [DTC]    
1 60302U 24133B   26079.33344708  .00001425  00000+0  16615-4 0  9994
2 60302  53.1579  93.9163 0001241  73.3028 286.8126 15.69715885 95401
STARLINK-11227 [DTC]    
1 60303U 24133C   26079.32853775 -.00002875  00000+0 -18858-4 0  9996
2 60303  53.1588  93.8834 0001776 157.5402 202.5694 15.69721042 95485
STARLINK-11224 [DTC]    
1 60304U 24133D   26079.32363982 -.00000933  00000+0 -28402-5 0  9993
2 60304  53.1591  93.8497 0001092  88.8699 271.2444 15.69705847 95481
STARLINK-11115 [DTC]    
1 60305U 24133E   26079.44606467  .00001470  00000+0  16987-4 0  9994
2 60305  53.1592  93.1877 0001215  91.0704 269.0454 15.69713571 95421
STARLINK-11109 [DTC]    
1 60306U 24133F   26079.31382271  .00001775  00000+0  19505-4 0  9992
2 60306  53.1589  93.7828 0001034  90.5377 269.5759 15.69707673 95406
STARLINK-11223 [DTC]    
1 60307U 24133G   26079.36768566  .00001044  00000+0  13476-4 0  9993
2 60307  53.1581  93.4033 0001345  82.7555 277.3616 15.69708285 95410
STARLINK-11192 [DTC]    
1 60308U 24133H   26079.30892140  .00001246  00000+0  15141-4 0  9999
2 60308  53.1597  93.7495 0001285  84.2896 275.8268 15.69707546 95405
STARLINK-11213 [DTC]    
1 60309U 24133J   26079.36277890 -.00000239  00000+0  28934-5 0  9992
2 60309  53.1592  93.3696 0001458 108.6016 251.5160 15.69707775 95414
STARLINK-11200 [DTC]    
1 60310U 24133K   26079.35787551 -.00000436  00000+0  12613-5 0  9999
2 60310  53.1600  93.3370 0001393  72.7835 287.3335 15.69710265 95412
STARLINK-11206 [DTC]    
1 60312U 24133M   26079.34816414 -.00000566  00000+0  18501-6 0  9998
2 60312  53.1589  94.0057 0001093  75.8644 284.2495 15.69711129 95401
STARLINK-11205 [DTC]    
1 60313U 24133N   26079.27959110  .00001176  00000+0  14565-4 0  9993
2 60313  53.1579  94.2868 0000964  84.2570 275.8558 15.69711058 95396
