[{"OBJECT_NAME":"STARLINK-32034","OBJECT_ID":"2024-132V","EPOCH":"2026-03-20T02:29:18.964608","MEAN_MOTION":15.3012832,"ECCENTRICITY":0.00015414,"INCLINATION":53.1619,"RA_OF_ASC_NODE":4.1401,"ARG_OF_PERICENTER":115.2846,"MEAN_ANOMALY":244.8314,"EPHEMERIS_TYPE":0,"CLASSIFICATION_TYPE":"U","NORAD_CAT_ID":60297,"ELEMENT_SET_NO":999,"REV_AT_EPOCH":9315,"BSTAR":0.00040555257,"MEAN_MOTION_DOT":0.00011645,"MEAN_MOTION_DDOT":0},{"OBJECT_NAME":"STARLINK-32124","OBJECT_ID":"2024-132W","EPOCH":"2026-03-20T12:11:51.744192","MEAN_MOTION":15.30180046,"ECCENTRICITY":0.0001179,"INCLINATION":53.1623,"RA_OF_ASC_NODE":2.402,"ARG_OF_PERICENTER":97.2378,"MEAN_ANOMALY":262.8757,"EPHEMERIS_TYPE":0,"CLASSIFICATION_TYPE":"U","NORAD_CAT_ID":60298,"ELEMENT_SET_NO":999,"REV_AT_EPOCH":9321,"BSTAR":8.069003e-5,"MEAN_MOTION_DOT":2.03e-5,"MEAN_MOTION_DDOT":0},{"OBJECT_NAME":"STARLINK-32151","OBJECT_ID":"2024-132X","EPOCH":"2026-03-20T02:51:01.860192","MEAN_MOTION":15.30192602,"ECCENTRICITY":0.00011713,"INCLINATION":53.1615,"RA_OF_ASC_NODE":335.5421,"ARG_OF_PERICENTER":80.0441,"MEAN_ANOMALY":280.0692,"EPHEMERIS_TYPE":0,"CLASSIFICATION_TYPE":"U","NORAD_CAT_ID":60299,"ELEMENT_SET_NO":999,"REV_AT_EPOCH":9355,"BSTAR":5.2997247e-5,"MEAN_MOTION_DOT":1.21e-5,"MEAN_MOTION_DDOT":0},{"OBJECT_NAME":"STARLINK-32134","OBJECT_ID":"2024-132Y","EPOCH":"2026-03-20T11:39:56.261376","MEAN_MOTION":15.30199911,"ECCENTRICITY":0.0001011,"INCLINATION":53.1619,"RA_OF_ASC_NODE":2.2611,"ARG_OF_PERICENTER":92.1524,"MEAN_ANOMALY":267.9593,"EPHEMERIS_TYPE":0,"CLASSIFICATION_TYPE":"U","NORAD_CAT_ID":60300,"ELEMENT_SET_NO":999,"REV_AT_EPOCH":9321,"BSTAR":2.7144538e-5,"MEAN_MOTION_DOT":4.45e-6,"MEAN_MOTION_DDOT":0},{"OBJECT_NAME":"STARLINK-11147 [DTC]","OBJECT_ID":"2024-133A","EPOCH":"2026-03-20T11:10:35.661792","MEAN_MOTION":15.697063,"ECCENTRICITY":0.00012306,"INCLINATION":53.1585,"RA_OF_ASC_NODE":93.3193,"ARG_OF_PERICENTER":83.3542,"MEAN_ANOMALY":276.7616,"EPHEMERIS_TYPE":0,"CLASSIFICATION_TYPE":"U","NORAD_CAT_ID":60301,"ELEMENT_SET_NO":999,"REV_AT_EPOCH":9542,"BSTAR":1.1729051e-5,"MEAN_MOTION_DOT":8.32e-6,"MEAN_MOTION_DDOT":0},{"OBJECT_NAME":"STARLINK-11128 [DTC]","OBJECT_ID":"2024-133B","EPOCH":"2026-03-20T08:00:09.827712","MEAN_MOTION":15.69715885,"ECCENTRICITY":0.0001241,"INCLINATION":53.1579,"RA_OF_ASC_NODE":93.9163,"ARG_OF_PERICENTER":73.3028,"MEAN_ANOMALY":286.8126,"EPHEMERIS_TYPE":0,"CLASSIFICATION_TYPE":"U","NORAD_CAT_ID":60302,"ELEMENT_SET_NO":999,"REV_AT_EPOCH":9540,"BSTAR":1.6615e-5,"MEAN_MOTION_DOT":1.425e-5,"MEAN_MOTION_DDOT":0},{"OBJECT_NAME":"STARLINK-11227 [DTC]","OBJECT_ID":"2024-133C","EPOCH":"2026-03-20T07:53:05.661600","MEAN_MOTION":15.69721042,"ECCENTRICITY":0.0001776,"INCLINATION":53.1588,"RA_OF_ASC_NODE":93.8834,"ARG_OF_PERICENTER":157.5402,"MEAN_ANOMALY":202.5694,"EPHEMERIS_TYPE":0,"CLASSIFICATION_TYPE":"U","NORAD_CAT_ID":60303,"ELEMENT_SET_NO":999,"REV_AT_EPOCH":9548,"BSTAR":-1.8858e-5,"MEAN_MOTION_DOT":-2.875e-5,"MEAN_MOTION_DDOT":0},{"OBJECT_NAME":"STARLINK-11224 [DTC]","OBJECT_ID":"2024-133D","EPOCH":"2026-03-20T07:46:02.480448","MEAN_MOTION":15.69705847,"ECCENTRICITY":0.0001092,"INCLINATION":53.1591,"RA_OF_ASC_NODE":93.8497,"ARG_OF_PERICENTER":88.8699,"MEAN_ANOMALY":271.2444,"EPHEMERIS_TYPE":0,"CLASSIFICATION_TYPE":"U","NORAD_CAT_ID":60304,"ELEMENT_SET_NO":999,"REV_AT_EPOCH":9548,"BSTAR":-2.8402e-6,"MEAN_MOTION_DOT":-9.33e-6,"MEAN_MOTION_DDOT":0},{"OBJECT_NAME":"STARLINK-11115 [DTC]","OBJECT_ID":"2024-133E","EPOCH":"2026-03-20T10:42:19.987488","MEAN_MOTION":15.69713571,"ECCENTRICITY":0.00012155,"INCLINATION":53.1592,"RA_OF_ASC_NODE":93.1877,"ARG_OF_PERICENTER":91.0704,"MEAN_ANOMALY":269.0454,"EPHEMERIS_TYPE":0,"CLASSIFICATION_TYPE":"U","NORAD_CAT_ID":60305,"ELEMENT_SET_NO":999,"REV_AT_EPOCH":9542,"BSTAR":1.6986878e-5,"MEAN_MOTION_DOT":1.47e-5,"MEAN_MOTION_DDOT":0},{"OBJECT_NAME":"STARLINK-11109 [DTC]","OBJECT_ID":"2024-133F","EPOCH":"2026-03-20T07:31:54.282144","MEAN_MOTION":15.69707673,"ECCENTRICITY":0.0001034,"INCLINATION":53.1589,"RA_OF_ASC_NODE":93.7828,"ARG_OF_PERICENTER":90.5377,"MEAN_ANOMALY":269.5759,"EPHEMERIS_TYPE":0,"CLASSIFICATION_TYPE":"U","NORAD_CAT_ID":60306,"ELEMENT_SET_NO":999,"REV_AT_EPOCH":9540,"BSTAR":1.9505e-5,"MEAN_MOTION_DOT":1.775e-5,"MEAN_MOTION_DDOT":0},{"OBJECT_NAME":"STARLINK-11223 [DTC]","OBJECT_ID":"2024-133G","EPOCH":"2026-03-20T08:49:28.041888","MEAN_MOTION":15.69708285,"ECCENTRICITY":0.00013446,"INCLINATION":53.1581,"RA_OF_ASC_NODE":93.4033,"ARG_OF_PERICENTER":82.7555,"MEAN_ANOMALY":277.3616,"EPHEMERIS_TYPE":0,"CLASSIFICATION_TYPE":"U","NORAD_CAT_ID":60307,"ELEMENT_SET_NO":999,"REV_AT_EPOCH":9541,"BSTAR":1.3476253e-5,"MEAN_MOTION_DOT":1.044e-5,"MEAN_MOTION_DDOT":0},{"OBJECT_NAME":"STARLINK-11192 [DTC]","OBJECT_ID":"2024-133H","EPOCH":"2026-03-20T07:24:50.808960","MEAN_MOTION":15.69707546,"ECCENTRICITY":0.0001285,"INCLINATION":53.1597,"RA_OF_ASC_NODE":93.7495,"ARG_OF_PERICENTER":84.2896,"MEAN_ANOMALY":275.8268,"EPHEMERIS_TYPE":0,"CLASSIFICATION_TYPE":"U","NORAD_CAT_ID":60308,"ELEMENT_SET_NO":999,"REV_AT_EPOCH":9540,"BSTAR":1.5141e-5,"MEAN_MOTION_DOT":1.246e-5,"MEAN_MOTION_DDOT":0},{"OBJECT_NAME":"STARLINK-11213 [DTC]","OBJECT_ID":"2024-133J","EPOCH":"2026-03-20T08:42:24.097824","MEAN_MOTION":15.69707775,"ECCENTRICITY":0.00014582,"INCLINATION":53.1592,"RA_OF_ASC_NODE":93.3696,"ARG_OF_PERICENTER":108.6016,"MEAN_ANOMALY":251.516,"EPHEMERIS_TYPE":0,"CLASSIFICATION_TYPE":"U","NORAD_CAT_ID":60309,"ELEMENT_SET_NO":999,"REV_AT_EPOCH":9541,"BSTAR":2.893359e-6,"MEAN_MOTION_DOT":-2.39e-6,"MEAN_MOTION_DDOT":0},{"OBJECT_NAME":"STARLINK-11200 [DTC]","OBJECT_ID":"2024-133K","EPOCH":"2026-03-20T08:35:20.444064","MEAN_MOTION":15.69710265,"ECCENTRICITY":0.00013929,"INCLINATION":53.16,"RA_OF_ASC_NODE":93.337,"ARG_OF_PERICENTER":72.7835,"MEAN_ANOMALY":287.3335,"EPHEMERIS_TYPE":0,"CLASSIFICATION_TYPE":"U","NORAD_CAT_ID":60310,"ELEMENT_SET_NO":999,"REV_AT_EPOCH":9541,"BSTAR":1.261273e-6,"MEAN_MOTION_DOT":-4.36e-6,"MEAN_MOTION_DDOT":0},{"OBJECT_NAME":"STARLINK-11206 [DTC]","OBJECT_ID":"2024-133M","EPOCH":"2026-03-20T08:21:21.382560","MEAN_MOTION":15.69711129,"ECCENTRICITY":0.00010932,"INCLINATION":53.1589,"RA_OF_ASC_NODE":94.0057,"ARG_OF_PERICENTER":75.8644,"MEAN_ANOMALY":284.2495,"EPHEMERIS_TYPE":0,"CLASSIFICATION_TYPE":"U","NORAD_CAT_ID":60312,"ELEMENT_SET_NO":999,"REV_AT_EPOCH":9540,"BSTAR":1.85006e-7,"MEAN_MOTION_DOT":-5.66e-6,"MEAN_MOTION_DDOT":0},{"OBJECT_NAME":"STARLINK-11205 [DTC]","OBJECT_ID":"2024-133N","EPOCH":"2026-03-20T06:42:36.671040","MEAN_MOTION":15.69711058,"ECCENTRICITY":9.64e-5,"INCLINATION":53.1579,"RA_OF_ASC_NODE":94.2868,"ARG_OF_PERICENTER":84.257,"MEAN_ANOMALY":275.8558,"EPHEMERIS_TYPE":0,"CLASSIFICATION_TYPE":"U","NORAD_CAT_ID":60313,"ELEMENT_SET_NO":999,"REV_AT_EPOCH":9539,"BSTAR":1.4565e-5,"MEAN_MOTION_DOT":1.176e-5,"MEAN_MOTION_DDOT":0}]
